IRIDIUM 155             
1 43573U 18061E   25105.29053800  .00000014  00000+0 -19875-5 0  9998
2 43573  86.3977 235.4334 0001897  96.5437 263.5975 14.34217582352023
IRIDIUM 154             
1 43574U 18061F   25104.85289960  .00000135  00000+0  40992-4 0  9994
2 43574  86.3979 235.7285 0002221  95.7053 264.4396 14.34217956352012
IRIDIUM 163             
1 43575U 18061G   25105.32224994  .00000455  00000+0  15530-3 0  9998
2 43575  86.3979 235.4614 0002126  91.4343 268.7097 14.34217260352052
IRIDIUM 156             
1 43576U 18061H   25105.29688003  .00000644  00000+0  22283-3 0  9993
2 43576  86.3976 235.4787 0001839 101.0950 259.0453 14.34218445352047
IRIDIUM 164             
1 43577U 18061J   25104.85924259  .00000122  00000+0  36638-4 0  9992
2 43577  86.3976 235.6950 0002297 101.4514 258.6940 14.34217846352029
IRIDIUM 159             
1 43578U 18061K   25105.31590929  .00000263  00000+0  86683-4 0  9999
2 43578  86.3977 235.4500 0002330  94.3700 265.7762 14.34218245352053
IRIDIUM 180             
1 43922U 19002A   25105.59447900  .00000282  00000+0  93687-4 0  9991
2 43922  86.4028 172.3144 0002249  92.7423 267.4030 14.34218022327704
IRIDIUM 176             
1 43923U 19002B   25105.57416845  .00001933  00000+0  30258-3 0  9992
2 43923  86.6151 172.3218 0002046  84.0121 276.1329 14.72259445336333
IRIDIUM 168             
1 43924U 19002C   25105.58813655 -.00000011  00000+0 -10874-4 0  9995
2 43924  86.4029 172.3818 0002192  97.2900 262.8545 14.34217568327683
IRIDIUM 173             
1 43925U 19002D   25105.57545135  .00000061  00000+0  14833-4 0  9992
2 43925  86.4028 172.2943 0002101  92.2280 267.9157 14.34217749327661
IRIDIUM 169             
1 43926U 19002E   25105.55380154  .00000783  00000+0  24950-3 0  9990
2 43926  86.4290 203.8656 0000769  85.2273 274.9013 14.38608079328740
IRIDIUM 172             
1 43927U 19002F   25105.42956752  .00000297  00000+0  99156-4 0  9991
2 43927  86.4022 172.3613 0002520  90.1184 270.0300 14.34220556327651
IRIDIUM 175             
1 43928U 19002G   25105.56897766  .00000712  00000+0  10897-3 0  9992
2 43928  86.1478 128.4192 0001789 115.5324 244.6078 14.72238531336329
IRIDIUM 171             
1 43929U 19002H   25105.55008073  .00000566  00000+0  19500-3 0  9994
2 43929  86.4035 172.5699 0002397 104.7979 255.3483 14.34219305327668
IRIDIUM 170             
1 43930U 19002J   25105.44438661  .00002009  00000+0  31457-3 0  9993
2 43930  86.6152 172.3810 0002023 100.1297 260.0148 14.72259960336321
IRIDIUM 167             
1 43931U 19002K   25105.61350662 -.00000047  00000+0 -23761-4 0  9999
2 43931  86.4029 172.3034 0002003 107.7847 252.3567 14.34217286327673
IRIDIUM 181             
1 56726U 23068S   25104.92818005  .00000866  00000+0  25109-3 0  9999
2 56726  86.4515 235.6359 0002429 108.9177 251.2287 14.43320822100669
IRIDIUM 177             
1 56727U 23068T   25105.60720882  .00002572  00000+0  33512-3 0  9994
2 56727  86.2015 171.8198 0002474 104.0084 256.1412 14.80214837103115
IRIDIUM 174             
1 56728U 23068U   25105.57714242  .00002057  00000+0  31929-3 0  9992
2 56728  86.6150 172.4399 0002026  92.2995 267.8454 14.72662677103106
IRIDIUM 178             
1 56729U 23068V   25105.52871295  .00003138  00000+0  40943-3 0  9997
2 56729  86.6609 203.9610 0002384  96.8791 263.2702 14.80236469103104
IRIDIUM 179             
1 56730U 23068W   25105.32049591  .00003029  00000+0  39520-3 0  9991
2 56730  86.6878 211.7337 0002130  99.8710 260.2752 14.80225177103072
